STARLINK-6142
1 57113U 23090N   26089.56813386  .00031378  00000+0  23128-2 0  9995
2 57113  43.0036 161.2380 0001896 280.8821  79.1808 15.02774495153555
